{
    "meta": {
        "timestamp": "2021-09-04T08:26:24.692337Z",
        "stations_updated": "2021-09-03"
    },
    "altimeter": {
        "repr": "Q1019",
        "value": 1019,
        "spoken": "one zero one nine"
    },
    "clouds": [],
    "flight_rules": "VFR",
    "other": [],
    "visibility": {
        "repr": "CAVOK",
        "value": 9999,
        "spoken": "ceiling and visibility ok"
    },
    "wind_direction": {
        "repr": "VRB",
        "value": null,
        "spoken": "variable"
    },
    "wind_gust": null,
    "wind_speed": {
        "repr": "02",
        "value": 2,
        "spoken": "two"
    },
    "wx_codes": [],
    "raw": "EDDM 040820Z VRB02KT CAVOK 17/13 Q1019 BECMG 08005KT",
    "sanitized": "EDDM 040820Z VRB02KT CAVOK 17/13 Q1019 BECMG 08005KT",
    "station": "EDDM",
    "time": {
        "repr": "040820Z",
        "dt": "2021-09-04T08:20:00Z"
    },
    "remarks": "BECMG 08005KT",
    "dewpoint": {
        "repr": "13",
        "value": 13,
        "spoken": "one three"
    },
    "relative_humidity": 0.7729251672522164,
    "remarks_info": {
        "maximum_temperature_6": null,
        "minimum_temperature_6": null,
        "pressure_tendency": null,
        "precip_36_hours": null,
        "precip_24_hours": null,
        "sunshine_minutes": null,
        "codes": [],
        "dewpoint_decimal": null,
        "maximum_temperature_24": null,
        "minimum_temperature_24": null,
        "precip_hourly": null,
        "sea_level_pressure": null,
        "snow_depth": null,
        "temperature_decimal": null
    },
    "runway_visibility": [],
    "temperature": {
        "repr": "17",
        "value": 17,
        "spoken": "one seven"
    },
    "wind_variable_direction": [],
    "density_altitude": 1913,
    "pressure_altitude": 1316,
    "units": {
        "accumulation": "in",
        "altimeter": "hPa",
        "altitude": "ft",
        "temperature": "C",
        "visibility": "m",
        "wind_speed": "kt"
    }
}